STARLINK-36941          
1 67991U 26039F   26080.00001157 -.00106951  00000+0 -18403-2 0  9993
2 67991  42.9998 347.4655 0001529 267.8962 168.1105 15.50608090  4691
STARLINK-36950          
1 67992U 26039G   26080.16667824  .00139929  00000+0  23556-2 0  9994
2 67992  42.9997 346.1124 0001686 256.9461 183.2568 15.50494630  4723
STARLINK-36975          
1 67993U 26039H   26080.16667824 -.00019751  00000+0 -33182-3 0  9994
2 67993  42.9999 346.0151 0001628 261.0020 218.5006 15.50567094  4723
STARLINK-36993          
1 67994U 26039J   26080.16667824 -.01858546  00000+0 -31042-1 0  9990
2 67994  42.9997 345.3237 0001683 273.4989 125.9041 15.54529583  4726
STARLINK-36968          
1 67995U 26039K   26080.16667824 -.00034079  00000+0 -57764-3 0  9998
2 67995  42.9996 346.2150 0001477 266.9663 131.4115 15.50576811  4723
STARLINK-36979          
1 67996U 26039L   26080.16667824 -.01845281  00000+0 -29038-1 0  9996
2 67996  42.9992 345.2227 0001489 269.4281 170.6263 15.56104759  4724
STARLINK-36994          
1 67997U 26039M   26080.16667824  .00135272  00000+0  22798-2 0  9993
2 67997  42.9999 345.5525 0001893 259.0634  46.9767 15.50481956  4727
STARLINK-36988          
1 67998U 26039N   26080.16667824 -.00420541  00000+0 -74897-2 0  9999
2 67998  42.9998 345.4945 0000992 241.8293  87.8250 15.50821718  4726
STARLINK-36926          
1 67999U 26039P   26080.16667824 -.00005156  00000+0 -82208-4 0  9998
2 67999  42.9997 345.5290 0001044 264.9156  50.4501 15.50555115  4723
STARLINK-36931          
1 68000U 26039Q   26080.16667824 -.01850354  00000+0 -30998-1 0  9997
2 68000  42.9998 345.2645 0001723 271.1492 151.7145 15.54432837  4724
STARLINK-36903          
1 68001U 26039R   26080.16667824  .00041151  00000+0  70454-3 0  9995
2 68001  42.9998 345.5171 0001805 272.5943  48.2022 15.50540141  4727
STARLINK-36898          
1 68002U 26039S   26080.16667824 -.01591883  00000+0 -27386-1 0  9995
2 68002  42.9994 345.3004 0002019 255.6537 152.9989 15.53223317  4727
STARLINK-36862          
1 68003U 26039T   26080.16667824 -.00400788  00000+0 -71289-2 0  9990
2 68003  42.9997 345.4108 0001244 237.9628 124.8136 15.50785266  4725
STARLINK-36888          
1 68004U 26039U   26080.16667824 -.00060619  00000+0 -10357-2 0  9995
2 68004  42.9999 345.4652 0000989 262.9069  78.2512 15.50574165  4728
STARLINK-36910          
1 68005U 26039V   26080.16667824 -.01796828  00000+0 -29972-1 0  9997
2 68005  42.9998 345.2178 0001637 286.1407 155.2727 15.54448637  4726
STARLINK-36889          
1 68006U 26039W   26080.16667824 -.00028473  00000+0 -48146-3 0  9997
2 68006  42.9997 345.5307 0000954 251.2789  62.9045 15.50569161  4729
STARLINK-36592          
1 68007U 26039X   26080.16667824 -.01777530  00000+0 -30580-1 0  9995
2 68007  42.9993 345.2396 0001878 275.5118 157.4261 15.53573045  4721
STARLINK-36911          
1 68008U 26039Y   26080.16667824 -.02051517  00000+0 -36985-1 0  9992
2 68008  42.9996 345.3202 0001431 281.1736 118.3527 15.52233630  4729
STARLINK-36956          
1 68009U 26039Z   26080.16667824 -.00152217  00000+0 -26334-2 0  9998
2 68009  42.9995 345.3823 0001679 264.0354 109.6447 15.50642691  4721
STARLINK-36953          
1 68010U 26039AA  26080.16667824 -.01833877  00000+0 -26464-1 0  9992
2 68010  43.0004 344.9304 0001210 269.1782 287.7142 15.58375292  4725
STARLINK-36991          
1 68011U 26039AB  26080.16667824 -.00018563  00000+0 -31144-3 0  9992
2 68011  42.9999 346.0595 0002253 265.7657 193.6661 15.50568386  4724
STARLINK-36936          
1 68012U 26039AC  26080.16667824  .00145983  00000+0  24585-2 0  9998
2 68012  42.9996 345.3429 0001453 282.3349 106.8552 15.50459326  4722
STARLINK-36967          
1 68013U 26039AD  26080.16667824 -.00016312  00000+0 -27296-3 0  9997
2 68013  43.0002 345.9863 0001619 274.7228 214.6000 15.50563092  4728
STARLINK-36985          
1 68014U 26039AE  26080.16667824 -.01843523  00000+0 -26121-1 0  9995
2 68014  43.0001 344.8840 0001326 266.0899 309.1871 15.58869618  4721
STARLINK-36335          
1 68015U 26040A   26080.16667824 -.00132834  00000+0 -90122-3 0  9997
2 68015  97.2827  29.1719 0001444 100.7427 189.9323 15.75250465  4223
STARLINK-36923          
1 68016U 26040B   26080.16667824 -.00121388  00000+0 -82300-3 0  9999
2 68016  97.2838  29.1756 0001548  95.4074 201.2972 15.75233031  4273
STARLINK-36568          
1 68017U 26040C   26080.16667824  .00045378  00000+0  30373-3 0  9995
2 68017  97.2844  29.1775 0001292  94.0019 206.7152 15.75171452  4270
STARLINK-36930          
1 68018U 26040D   26080.16667824  .00026962  00000+0  18116-3 0  9995
2 68018  97.2842  29.1741 0001609 102.2597 190.4486 15.75177001  4272
STARLINK-36921          
1 68019U 26040E   26080.16667824  .00001640  00000+0  11883-4 0  9997
2 68019  97.2838  29.1866 0001479  95.3154 219.4194 15.75149502  4275
